KUIPER-00089            
1 64834U 25151U   25300.00002315  .00038266  00000+0  34997-2 0  9998
2 64834  51.8953 157.2880 0002298 174.5055  88.8892 14.94626997  5899
KUIPER-00090            
1 64835U 25151V   25300.00002315 -.00071384  00000+0 -36318-2 0  9998
2 64835  51.8970 153.4862 0003440 206.5840  61.5780 15.16551017  5467
KUIPER-00091            
1 64836U 25151W   25300.00002315 -.00899765  00000+0 -68764-1 0  9999
2 64836  51.8870 155.6066 0007303 191.9686  71.0153 15.04377169  5869
KUIPER-00092            
1 64837U 25151X   25300.00002315  .00027475  00000+0  35687-2 0  9998
2 64837  51.9005 161.7541 0006709 153.6376  59.2967 14.80501562  3821
KUIPER-00093            
1 64838U 25151Y   25299.89014796 -.00002009  00000+0 -23358-3 0  9990
2 64838  51.8972 164.7403 0014242 164.2040 195.9369 14.79941654 15590
KUIPER-00094            
1 64839U 25151Z   25299.81657332  .00010256  00000+0  73709-3 0  9998
2 64839  51.8874 157.8813 0006688 174.7224 185.3821 15.04773006 15684
KUIPER-00081            
1 65132U 25171A   25299.67395354  .00042759  00000+0  11265-2 0  9995
2 65132  51.8758  36.8383 0005197  29.2513 330.8764 15.38087913 12962
KUIPER-00088            
1 65133U 25171B   25300.00002315 -.02073993  00000+0 -14891+0 0  9991
2 65133  51.8912  38.5552 0007393  35.2072 158.6106 15.07261010  3783
